TDRS 3                  
1 19548U 88091B   26188.31780601 -.00000291  00000+0  00000+0 0  9995
2 19548  12.5868 340.8629 0036883 355.8961  13.9494  1.00265936125590
FLTSATCOM 8 (USA 46)    
1 20253U 89077A   26188.31258258 -.00000359  00000+0  00000+0 0  9998
2 20253  12.4157 351.0418 0003654  65.5622 106.8777  1.00267077260767
SKYNET 4C               
1 20776U 90079A   26188.53582564  .00000013  00000+0  00000+0 0  9992
2 20776  13.3318 349.6808 0003150 134.8450 231.6659  0.98576230   243
TDRS 5                  
1 21639U 91054B   26188.62746468  .00000091  00000+0  00000+0 0  9996
2 21639  14.0684 353.6220 0007116 256.6588  93.5091  1.00270866127919
TDRS 6                  
1 22314U 93003B   26188.37062278 -.00000289  00000+0  00000+0 0  9995
2 22314  14.1830 356.9078 0009027 180.2249 195.4577  1.00263978122619
UFO 2 (USA 95)          
1 22787U 93056A   26187.65172554  .00000133  00000+0  00000+0 0  9993
2 22787  11.9014   3.4464 0003974   9.9975 174.5392  1.00277966118747
USA 99 (MILSTAR-1 1)    
1 22988U 94009A   26188.56203553  .00000015  00000+0  00000+0 0  9999
2 22988  17.6554  27.4916 0001556 188.3755 163.2836  0.98720164 33149
UFO 4 (USA 108)         
1 23467U 95003A   26188.62021812 -.00000013  00000+0  00000+0 0  9999
2 23467   9.6832  13.0645 0003059  89.7719 218.2991  1.00275028115159
TDRS 7                  
1 23613U 95035B   26188.47614037 -.00000233  00000+0  00000+0 0  9991
2 23613  13.3686 348.0495 0011682  84.1811 113.8080  1.00275941113452
USA 115 (MILSTAR-1 2)   
1 23712U 95060A   26188.55543343 -.00000196  00000+0  00000+0 0  9997
2 23712  14.0797   3.5890 0006296 120.9531 270.9026  1.00271597 33097
INMARSAT 3-F1           
1 23839U 96020A   26188.56518779  .00000021  00000+0  00000+0 0  9996
2 23839  10.6423  46.4452 0004183  79.0581 246.7638  0.99978859110455
INMARSAT 3-F2           
1 24307U 96053A   26188.52706819 -.00000346  00000+0  00000+0 0  9994
2 24307   9.9017  53.7276 0006442  47.3680 143.5739  0.99995534109126
INMARSAT 3-F3           
1 24674U 96070A   26188.29178249  .00000093  00000+0  00000+0 0  9992
2 24674  10.3606  49.4589 0003410  64.5378 298.1940  0.99991987108116
USA 134                 
1 25019U 97065A   26188.56431829 -.00000055  00000+0  00000+0 0  9996
2 25019  12.8069  21.5633 0002340 338.9110  15.7702  1.00272234 33154
INMARSAT 3-F5           
1 25153U 98006B   26188.49082084 -.00000282  00000+0  00000+0 0  9990
2 25153   9.7355  53.0526 0003971  57.4589 297.6180  1.00267976104091
ABS-6                   
1 25924U 99053A   26187.96270304 -.00000103  00000+0  00000+0 0  9996
2 25924   0.0654 266.6862 0003425 184.1953 339.6560  1.00278444 98032
UFO 10 (USA 146)        
1 25967U 99063A   26188.35432714 -.00000179  00000+0  00000+0 0  9996
2 25967   9.8547  27.1038 0001282  96.5956 266.1988  1.00273889 97552
ASIASTAR                
1 26107U 00016A   26188.59355977 -.00000325  00000+0  00000+0 0  9997
2 26107   9.1739  57.9315 0003782  58.0027 128.2834  1.00275180 96129
USA 149 (DSP 20)        
1 26356U 00024A   26188.62974800  .00000103  00000+0  00000+0 0  9991
2 26356  13.1850  11.7000 0001438 299.3233  36.4307  1.00283627 33118
TDRS 8                  
1 26388U 00034A   26188.58957309 -.00000189  00000+0  00000+0 0  9992
2 26388  12.7151  31.1470 0004399  30.4724 161.0062  1.00273813 95383
NSS-11                  
1 26554U 00059A   26188.58986995  .00000039  00000+0  00000+0 0  9990
2 26554   2.1760  81.1525 0002881  28.4050 204.3497  1.00272291 41491
USA 153                 
1 26575U 00065A   26187.95776302 -.00000316  00000+0  00000+0 0  9998
2 26575  11.6572  35.2527 0002216  55.8077 313.0665  1.00274909 33132
AMC-6                   
1 26580U 00067A   26188.63910538  .00000103  00000+0  00000+0 0  9996
2 26580   0.2010  83.5954 0003854  35.9065 261.1439  1.00271402 94093
USA 157 (MILSTAR-2 2)   
1 26715U 01009A   26188.63473714  .00000117  00000+0  00000+0 0  9998
2 26715  11.5639  19.6295 0040456 178.7755 165.6013  1.00271291 33145
INTELSAT 902 (IS-902)   
1 26900U 01039A   26188.49142751 -.00000272  00000+0  00000+0 0  9998
2 26900   6.1673  71.5349 0004415  31.4521 309.2722  1.00272462 90896
USA 164 (MILSTAR-2 3)   
1 27168U 02001A   26188.22010478  .00000106  00000+0  00000+0 0  9991
2 27168  11.2021  21.7774 0098688   8.9588 352.6345  1.00274465 33168
INTELSAT 904 (IS-904)   
1 27380U 02007A   26188.49524087 -.00000214  00000+0  00000+0 0  9999
2 27380   6.9674  68.9385 0005649  20.5791 342.7553  1.00272979 51979
DIRECTV 5 (TEMPO 1)     
1 27426U 02023A   26188.56249921 -.00000045  00000+0  00000+0 0  9999
2 27426   4.9265  75.0571 0003138  33.6207 269.2467  1.00271111 88321
INTELSAT 905 (IS-905)   
1 27438U 02027A   26188.60018914  .00000104  00000+0  00000+0 0  9992
2 27438   6.8014  69.5516 0003701  41.3362 253.5448  1.00272047 51568
GALAXY 3C (G-3C)        
1 27445U 02030A   26188.55643932 -.00000140  00000+0  00000+0 0  9993
2 27445   3.7826  77.7134 0001671  35.9642 277.3401  1.00271292 46696
INTELSAT 906 (IS-906)   
1 27513U 02041A   26188.22903148  .00000025  00000+0  00000+0 0  9994
2 27513   5.8521  72.6749 0004010  15.3631 343.7400  1.00271515 87222
